{
    "links": {
        "self": "http://www.neowsapp.com/rest/v1/neo/3645309?api_key=iIulBulltgU6a56xZRHN4H3l9WmuAYTsLGpBGhQ2"
    },
    "id": "3645309",
    "neo_reference_id": "3645309",
    "name": "(2013 PH10)",
    "designation": "2013 PH10",
    "nasa_jpl_url": "http://ssd.jpl.nasa.gov/sbdb.cgi?sstr=3645309",
    "absolute_magnitude_h": 23.3,
    "estimated_diameter": {
        "kilometers": {
            "estimated_diameter_min": 0.058150704,
            "estimated_diameter_max": 0.130028927
        },
        "meters": {
            "estimated_diameter_min": 58.1507039646,
            "estimated_diameter_max": 130.0289270043
        },
        "miles": {
            "estimated_diameter_min": 0.0361331611,
            "estimated_diameter_max": 0.0807962044
        },
        "feet": {
            "estimated_diameter_min": 190.7831555951,
            "estimated_diameter_max": 426.6041048727
        }
    },
    "is_potentially_hazardous_asteroid": false,
    "close_approach_data": [
        {
            "close_approach_date": "2013-07-28",
            "close_approach_date_full": "2013-Jul-28 07:30",
            "epoch_date_close_approach": 1374996600000,
            "relative_velocity": {
                "kilometers_per_second": "0.593542252",
                "kilometers_per_hour": "2136.7521070571",
                "miles_per_hour": "1327.69466341"
            },
            "miss_distance": {
                "astronomical": "0.1547120858",
                "lunar": "60.1830013762",
                "kilometers": "23144598.498937246",
                "miles": "14381386.6334801548"
            },
            "orbiting_body": "Earth"
        }
    ],
    "orbital_data": {
        "orbit_id": "14",
        "orbit_determination_date": "2017-04-06 08:45:12",
        "first_observation_date": "2013-08-03",
        "last_observation_date": "2013-08-30",
        "data_arc_in_days": 27,
        "observations_used": 56,
        "orbit_uncertainty": "7",
        "minimum_orbit_intersection": ".154664",
        "jupiter_tisserand_invariant": "4.694",
        "epoch_osculation": "2459000.5",
        "eccentricity": ".1772921290311901",
        "semi_major_axis": "1.419410410319299",
        "inclination": "1.211912887636015",
        "ascending_node_longitude": "199.9680601244295",
        "orbital_period": "617.6755435336353",
        "perihelion_distance": "1.167760116704755",
        "perihelion_argument": "109.1786813077735",
        "aphelion_distance": "1.671060703933842",
        "perihelion_time": "2458977.469649205251",
        "mean_anomaly": "13.4227854298365",
        "mean_motion": ".5828302638315424",
        "equinox": "J2000",
        "orbit_class": {
            "orbit_class_type": "AMO",
            "orbit_class_description": "Near-Earth asteroid orbits similar to that of 1221 Amor",
            "orbit_class_range": "1.017 AU < q (perihelion) < 1.3 AU"
        }
    },
    "is_sentry_object": false
}